STARLINK-3922           
1 52584U 22051BA  22308.74085989  .00001089  00000+0  86484-4 0  9990
2 52584  53.2178 200.1718 0002333  40.3856 319.7309 15.08844910 27267
STARLINK-3906           
1 52585U 22051BB  22308.79237967 -.00000204  00000+0  52824-5 0  9992
2 52585  53.2174 199.9461 0002009  45.3230 314.7926 15.08860928 27273
STARLINK-3910           
1 52586U 22051BC  22308.79605641 -.00008744  00000+0 -53194-3 0  9998
2 52586  53.2178 199.9245 0001816  45.5719 314.5422 15.08838271 27272
STARLINK-3867           
1 52587U 22051BD  22308.12629577  .00004814  00000+0  32023-3 0  9990
2 52587  53.2183 202.9413 0002271  37.2952 322.8197 15.08856760 27177
STARLINK-3917           
1 52588U 22051BE  22308.71877604  .00004196  00000+0  28153-3 0  9994
2 52588  53.2159 200.2791 0002190  54.6755 305.4441 15.08842785 27266
STARLINK-4019           
1 52598U 22052A   22308.42575355  .00000491  00000+0  48925-4 0  9996
2 52598  53.2195   6.5814 0002333  37.1498 322.9656 15.08858951 27218
STARLINK-4024           
1 52599U 22052B   22308.86693737  .00001321  00000+0  10111-3 0  9998
2 52599  53.2185 359.6021 0003047  24.9855 335.1285 15.08849868 27350
STARLINK-4026           
1 52600U 22052C   22308.52375228  .00000190  00000+0  30034-4 0  9996
2 52600  53.2190   1.1412 0001982  36.9987 323.1142 15.08835287 26872
STARLINK-4027           
1 52601U 22052D   22308.86230159 -.00000610  00000+0 -20198-4 0  9996
2 52601  53.2191 359.6210 0002444  33.1105 327.0040 15.08843524 27353
STARLINK-4012           
1 52602U 22052E   22308.39493614  .00005457  00000+0  36043-3 0  9999
2 52602  53.2182   1.7197 0002336  30.2062 329.9065 15.08868475 27285
STARLINK-4016           
1 52603U 22052F   22308.44645329  .00001973  00000+0  14203-3 0  9991
2 52603  53.2202   1.4963 0002275  26.8797 333.2313 15.08848765 27290
STARLINK-4013           
1 52604U 22052G   22308.85126561 -.00000186  00000+0  64314-5 0  9995
2 52604  53.2197 359.6679 0002646  28.2091 331.9044 15.08841256 26553
STARLINK-4000           
1 52605U 22052H   22308.68703428  .00006905  00000+0  45116-3 0  9991
2 52605  53.2169   5.4111 0002221  31.1921 328.9203 15.08870061 26452
STARLINK-3928           
1 52606U 22052J   22308.84761287 -.00001879  00000+0 -10002-3 0  9990
2 52606  53.2199 359.6876 0002394  34.1283 325.9863 15.08814882 26552
STARLINK-3947           
1 52607U 22052K   22308.87840894  .00000390  00000+0  42614-4 0  9996
2 52607  53.2190   4.5478 0002194  40.2019 319.9135 15.08842322 26477
STARLINK-3979           
1 52608U 22052L   22308.44278666 -.00000251  00000+0  23360-5 0  9997
2 52608  53.2198   1.5055 0002631  22.4661 337.6446 15.08838089 26494
STARLINK-3997           
1 52609U 22052M   22308.43636869  .00002776  00000+0  19238-3 0  9990
2 52609  53.2169   1.5525 0002527  27.3683 332.7441 15.08859109 26494
STARLINK-3998           
1 52610U 22052N   22308.55088095  .00003837  00000+0  25894-3 0  9991
2 52610  53.2183   6.0232 0003273  19.4808 340.6308 15.08857230 26434
STARLINK-3980           
1 52611U 22052P   22308.54351967  .00001893  00000+0  13701-3 0  9996
2 52611  53.2196   6.0540 0002310  31.7002 328.4128 15.08846244 26432
STARLINK-4002           
1 52612U 22052Q   22308.57163981 -.00012075  00000+0 -74320-3 0  9997
2 52612  53.2186   0.9417 0002199  33.3068 326.8063 15.08771314 26517
STARLINK-3921           
1 52613U 22052R   22308.81906887  .00001321  00000+0  10111-3 0  9993
2 52613  53.2181 349.8124 0001973  42.4131 317.7014 15.08836596 26681
STARLINK-3982           
1 52614U 22052S   22308.82274465  .00001306  00000+0  10013-3 0  9999
2 52614  53.2180 349.8021 0002219  33.0786 327.0345 15.08847684 26684
STARLINK-4011           
1 52615U 22052T   22308.87104097  .00006533  00000+0  42791-3 0  9993
2 52615  53.2183   4.5811 0002226  32.7270 327.3860 15.08863250 26471
STARLINK-4015           
1 52616U 22052U   22308.61667564 -.00000078  00000+0  13228-4 0  9992
2 52616  53.2177 350.7313 0002528  33.5279 326.5872 15.08838889 26655
STARLINK-3996           
1 52617U 22052V   22308.80804017  .00000402  00000+0  43387-4 0  9999
2 52617  53.2184 349.8636 0002154  38.6786 321.4360 15.08825002 26676
STARLINK-3983           
1 52618U 22052W   22308.54675330  .00000133  00000+0  26458-4 0  9996
2 52618  53.2170 351.0540 0002013  40.0309 320.0831 15.08839928 27012
STARLINK-3741           
1 52619U 22052X   22308.54033635  .00003881  00000+0  26170-3 0  9996
2 52619  53.2178 351.0810 0002389  27.9755 332.1365 15.08856554 26633
STARLINK-3975           
1 52620U 22052Y   22308.86735894 -.00000461  00000+0 -10818-4 0  9995
2 52620  53.2177   4.6026 0002111  35.3345 324.7787 15.08849470 26471
STARLINK-3984           
1 52621U 22052Z   22308.39953357  .00004161  00000+0  27928-3 0  9998
2 52621  53.2171 351.7160 0002165  30.9743 329.1377 15.08851570 26617
STARLINK-4008           
1 52622U 22052AA  22308.56560179  .00002259  00000+0  15994-3 0  9990
2 52622  53.2208   5.9647 0001692  56.8990 303.2164 15.08851541 26437
STARLINK-3986           
1 52623U 22052AB  22308.85955813 -.00002963  00000+0 -16816-3 0  9994
2 52623  53.2162 349.6513 0002810  25.9761 334.1371 15.08830861 26685
STARLINK-4009           
1 52624U 22052AC  22308.53939044  .00002570  00000+0  17953-3 0  9993
2 52624  53.2175 351.0881 0002682  23.6840 336.4276 15.08845383 26634
STARLINK-3988           
1 52625U 22052AD  22308.52466187  .00005476  00000+0  36160-3 0  9995
2 52625  53.2192 351.1406 0001260  41.2903 318.8184 15.08866260 26634
STARLINK-3990           
1 52626U 22052AE  22308.40322130  .00008506  00000+0  55151-3 0  9990
2 52626  53.2182 351.6975 0002087  41.7502 318.3649 15.08862899 26611
STARLINK-3992           
1 52627U 22052AF  22308.84482578  .00001243  00000+0  96173-4 0  9993
2 52627  53.2174 349.7155 0002445  29.1095 331.0033 15.08840946 26692
STARLINK-4001           
1 52628U 22052AG  22308.36320491  .00001889  00000+0  13676-3 0  9998
2 52628  53.2183   6.8782 0001976  41.2316 318.8825 15.08846208 26788
STARLINK-4022           
1 52629U 22052AH  22308.84115458 -.00000740  00000+0 -28351-4 0  9991
2 52629  53.2190 349.7280 0002472  37.3042 322.8121 15.08840851 26684
STARLINK-3989           
1 52630U 22052AJ  22308.85218864  .00001705  00000+0  12522-3 0  9991
2 52630  53.2193 349.6793 0002807  24.0240 336.0883 15.08834967 26685
STARLINK-3794           
1 52631U 22052AK  22308.83746307 -.00002311  00000+0 -12706-3 0  9998
2 52631  53.2191 349.7426 0002479  36.1711 323.9448 15.08846723 26696
STARLINK-3995           
1 52632U 22052AL  22308.45106633  .00008587  00000+0  55663-3 0  9997
2 52632  53.2205 351.4675 0001948  34.9068 325.2051 15.08860299 26633
STARLINK-3994           
1 52633U 22052AM  22308.82642829  .00001335  00000+0  10198-3 0  9999
2 52633  53.2196 349.7836 0001868  42.3799 317.7337 15.08836379 26698
STARLINK-3974           
1 52634U 22052AN  22308.83842679  .00014177  00000+0  90629-3 0  9991
2 52634  53.2172 349.7391 0002409  33.0484 327.0659 15.08870417 26680
STARLINK-3978           
1 52635U 22052AP  22308.80893988 -.00003507  00000+0 -20221-3 0  9996
2 52635  53.2168 339.8621 0002842  29.3058 330.8094 15.08854207 26828
STARLINK-3967           
1 52636U 22052AQ  22308.83378570  .00006400  00000+0  41971-3 0  9993
2 52636  53.2181 349.7475 0001900  33.8319 326.2794 15.08851692 26680
STARLINK-3961           
1 52637U 22052AR  22308.80526636  .00001353  00000+0  10311-3 0  9995
2 52637  53.2186 339.8821 0002505  35.6295 324.4864 15.08839635 27622
STARLINK-3941           
1 52638U 22052AS  22308.49889776 -.00001251  00000+0 -60475-4 0  9994
2 52638  53.2198 351.2600 0002311  36.2019 323.9130 15.08856644 27017
STARLINK-3968           
1 52639U 22052AT  22308.79422688 -.00000427  00000+0 -86918-5 0  9998
2 52639  53.2187 339.9309 0003278  23.9973 336.1171 15.08837189 27193
STARLINK-3977           
1 52640U 22052AU  22308.80990466  .00002266  00000+0  16043-3 0  9997
2 52640  53.2164 339.8544 0002398  29.0035 331.1090 15.08839140 26810
STARLINK-3991           
1 52641U 22052AV  22308.79053984  .00001482  00000+0  11119-3 0  9999
2 52641  53.2176 339.9466 0002917  24.1764 335.9365 15.08844850 26822
STARLINK-3971           
1 52642U 22052AW  22308.47038696  .00002797  00000+0  19378-3 0  9993
2 52642  53.2166 341.3786 0002888  21.9801 338.1314 15.08846033 26765
STARLINK-3963           
1 52643U 22052AX  22308.58078321 -.00000027  00000+0  16415-4 0  9990
2 52643  53.2192 340.8891 0002523  23.6221 336.4886 15.08846658 26787
STARLINK-3985           
1 52644U 22052AY  22308.79790249 -.00000723  00000+0 -27274-4 0  9993
2 52644  53.2175 339.9121 0003115  20.5677 339.5440 15.08847428 27195
STARLINK-3973           
1 52645U 22052AZ  22308.51182189  .00004174  00000+0  28010-3 0  9992
2 52645  53.2198 341.2017 0002647  26.4143 333.6984 15.08851676 27157
STARLINK-3832           
1 52646U 22052BA  22308.78687134 -.00000107  00000+0  11418-4 0  9990
2 52646  53.2199 339.9636 0002851  27.1040 333.0101 15.08831849 27190
STARLINK-3846           
1 52647U 22052BB  22308.50445375  .00001805  00000+0  13149-3 0  9997
2 52647  53.2208 341.2388 0002878  26.6865 333.4275 15.08842194 26785
STARLINK-3854           
1 52648U 22052BC  22308.38574278  .00006614  00000+0  43304-3 0  9998
2 52648  53.2197 341.7631 0002852  26.1912 333.9224 15.08859429 26754
STARLINK-3868           
1 52649U 22052BD  22308.57437924  .00000877  00000+0  73182-4 0  9999
2 52649  53.2203 340.9223 0002612  30.8924 329.2222 15.08843864 26796
STARLINK-3891           
1 52650U 22052BE  22308.45018309  .00001987  00000+0  14295-3 0  9992
2 52650  53.2195 331.4713 0003385  22.2441 337.8697 15.08838298 26914
STARLINK-4004           
1 52656U 22053A   22308.82043843  .00003640  00000+0  24667-3 0  9993
2 52656  53.2178 234.8117 0001844  53.8237 306.2925 15.08845324 26806
STARLINK-4084           
1 52657U 22053B   22308.49660562  .00003130  00000+0  21457-3 0  9998
2 52657  53.2167 236.2657 0002126  42.6050 317.5107 15.08857404 27050
